STARLINK-32560          
1 61982U 24210Z   26068.62945189  .00027930  00000+0  10189-2 0  9992
2 61982  43.0062 179.9209 0003359 300.7869  59.2652 15.27631693 74871
FLOCK 4G-27             
1 62641U 25009AJ  26068.75406453  .00012587  00000+0  47455-3 0  9991
2 62641  97.3976 150.8631 0000756 322.4974  37.6212 15.27199247 63710
